{"type": "FeatureCollection", "features": [ {"type": "Feature", "properties": {"norad_id": 33153, "name": "INTELSAT 25 (IS-25)", "group": "intelsat", "lat": 2.113809190276504, "lon": 156.71314585002992, "alt_km": 35791.30881131831, "timestamp": "2025-12-04T07:39:35.838010+00:00", "meta": {"OBJECT_NAME": "INTELSAT 25 (IS-25)", "OBJECT_ID": "2008-034A", "EPOCH": "2025-12-03T17:01:49.924704", "MEAN_MOTION": 1.00271325, "ECCENTRICITY": 0.00053616, "INCLINATION": 2.2026, "RA_OF_ASC_NODE": 82.7502, "ARG_OF_PERICENTER": 177.6461, "MEAN_ANOMALY": 36.3651, "EPHEMERIS_TYPE": 0, "CLASSIFICATION_TYPE": "U", "NORAD_CAT_ID": 33153, "ELEMENT_SET_NO": 999, "REV_AT_EPOCH": 6373, "BSTAR": 0, "MEAN_MOTION_DOT": -2.07e-06, "MEAN_MOTION_DDOT": 0}, "tle": {"line1": "1 33153U 08034A   25337.70960561 -.00000207  00000+0  00000+0 0  9992", "line2": "2 33153   2.2026  82.7502 0005361 177.6461  36.3651  1.00271325 63734"}}, "geometry": {"type": "Point", "coordinates": [156.71314585002992, 2.113809190276504]}}, {"type": "Feature", "properties": {"norad_id": 33376, "name": "GALAXY 19 (G-19)", "group": "intelsat", "lat": 0.03413384572379742, "lon": 91.27116596918452, "alt_km": 35800.38665011609, "timestamp": "2025-12-04T07:39:35.838020+00:00", "meta": {"OBJECT_NAME": "GALAXY 19 (G-19)", "OBJECT_ID": "2008-045A", "EPOCH": "2025-12-03T13:17:38.372640", "MEAN_MOTION": 1.00270861, "ECCENTRICITY": 0.00033567, "INCLINATION": 0.016, "RA_OF_ASC_NODE": 6.4574, "ARG_OF_PERICENTER": 255.4369, "MEAN_ANOMALY": 273.1641, "EPHEMERIS_TYPE": 0, "CLASSIFICATION_TYPE": "U", "NORAD_CAT_ID": 33376, "ELEMENT_SET_NO": 999, "REV_AT_EPOCH": 6294, "BSTAR": 0, "MEAN_MOTION_DOT": -1.21e-06, "MEAN_MOTION_DDOT": 0}, "tle": {"line1": "1 33376U 08045A   25337.55391635 -.00000121  00000+0  00000+0 0  9999", "line2": "2 33376   0.0160   6.4574 0003356 255.4369 273.1641  1.00270861 62948"}}, "geometry": {"type": "Point", "coordinates": [91.27116596918452, 0.03413384572379742]}}, {"type": "Feature", "properties": {"norad_id": 35493, "name": "FM-5", "group": "intelsat", "lat": 0.012145459256880698, "lon": 102.11765687312818, "alt_km": 35784.50698897927, "timestamp": "2025-12-04T07:39:35.838031+00:00", "meta": {"OBJECT_NAME": "FM-5", "OBJECT_ID": "2009-034A", "EPOCH": "2025-12-03T13:20:45.573792", "MEAN_MOTION": 1.00269483, "ECCENTRICITY": 0.0001124, "INCLINATION": 0.0219, "RA_OF_ASC_NODE": 284.9985, "ARG_OF_PERICENTER": 238.2695, "MEAN_ANOMALY": 23.4279, "EPHEMERIS_TYPE": 0, "CLASSIFICATION_TYPE": "U", "NORAD_CAT_ID": 35493, "ELEMENT_SET_NO": 999, "REV_AT_EPOCH": 4468, "BSTAR": 0, "MEAN_MOTION_DOT": -1.82e-06, "MEAN_MOTION_DDOT": 0}, "tle": {"line1": "1 35493U 09034A   25337.55608303 -.00000182  00000+0  00000+0 0  9990", "line2": "2 35493   0.0219 284.9985 0001124 238.2695  23.4279  1.00269483 44688"}}, "geometry": {"type": "Point", "coordinates": [102.11765687312818, 0.012145459256880698]}}, {"type": "Feature", "properties": {"norad_id": 36097, "name": "INTELSAT 14 (IS-14)", "group": "intelsat", "lat": -0.007542460671026895, "lon": 143.24863961803425, "alt_km": 35790.474851417544, "timestamp": "2025-12-04T07:39:35.838041+00:00", "meta": {"OBJECT_NAME": "INTELSAT 14 (IS-14)", "OBJECT_ID": "2009-064A", "EPOCH": "2025-12-03T16:57:57.794688", "MEAN_MOTION": 1.00271267, "ECCENTRICITY": 0.00026605, "INCLINATION": 0.0152, "RA_OF_ASC_NODE": 306.2108, "ARG_OF_PERICENTER": 308.85, "MEAN_ANOMALY": 27.2278, "EPHEMERIS_TYPE": 0, "CLASSIFICATION_TYPE": "U", "NORAD_CAT_ID": 36097, "ELEMENT_SET_NO": 999, "REV_AT_EPOCH": 5864, "BSTAR": 0, "MEAN_MOTION_DOT": -2.56e-06, "MEAN_MOTION_DDOT": 0}, "tle": {"line1": "1 36097U 09064A   25337.70691892 -.00000256  00000+0  00000+0 0  9998", "line2": "2 36097   0.0152 306.2108 0002660 308.8500  27.2278  1.00271267 58640"}}, "geometry": {"type": "Point", "coordinates": [143.24863961803425, -0.007542460671026895]}}, {"type": "Feature", "properties": {"norad_id": 36106, "name": "INTELSAT 15 (IS-15)", "group": "intelsat", "lat": -0.03258815835013787, "lon": -86.55970736638163, "alt_km": 35776.670225034, "timestamp": "2025-12-04T07:39:35.838052+00:00", "meta": {"OBJECT_NAME": "INTELSAT 15 (IS-15)", "OBJECT_ID": "2009-067A", "EPOCH": "2025-12-03T18:59:41.161632", "MEAN_MOTION": 1.00270254, "ECCENTRICITY": 0.0002465, "INCLINATION": 0.0152, "RA_OF_ASC_NODE": 328.9523, "ARG_OF_PERICENTER": 285.4654, "MEAN_ANOMALY": 188.5405, "EPHEMERIS_TYPE": 0, "CLASSIFICATION_TYPE": "U", "NORAD_CAT_ID": 36106, "ELEMENT_SET_NO": 999, "REV_AT_EPOCH": 3927, "BSTAR": 0, "MEAN_MOTION_DOT": -1.68e-06, "MEAN_MOTION_DDOT": 0}, "tle": {"line1": "1 36106U 09067A   25337.79144863 -.00000168  00000+0  00000+0 0  9994", "line2": "2 36106   0.0152 328.9523 0002465 285.4654 188.5405  1.00270254 39272"}}, "geometry": {"type": "Point", "coordinates": [-86.55970736638163, -0.03258815835013787]}}, {"type": "Feature", "properties": {"norad_id": 36131, "name": "DIRECTV 12", "group": "intelsat", "lat": -0.0009324169621507715, "lon": 85.55932403642875, "alt_km": 35786.41115661702, "timestamp": "2025-12-04T07:39:35.838063+00:00", "meta": {"OBJECT_NAME": "DIRECTV 12", "OBJECT_ID": "2009-075A", "EPOCH": "2025-12-03T13:16:01.028352", "MEAN_MOTION": 1.00271981, "ECCENTRICITY": 1.648e-05, "INCLINATION": 0.0116, "RA_OF_ASC_NODE": 84.8358, "ARG_OF_PERICENTER": 123.1673, "MEAN_ANOMALY": 320.9288, "EPHEMERIS_TYPE": 0, "CLASSIFICATION_TYPE": "U", "NORAD_CAT_ID": 36131, "ELEMENT_SET_NO": 999, "REV_AT_EPOCH": 4459, "BSTAR": 0, "MEAN_MOTION_DOT": -8.6e-07, "MEAN_MOTION_DDOT": 0}, "tle": {"line1": "1 36131U 09075A   25337.55278968 -.00000086  00000+0  00000+0 0  9998", "line2": "2 36131   0.0116  84.8358 0000164 123.1673 320.9288  1.00271981 44597"}}, "geometry": {"type": "Point", "coordinates": [85.55932403642875, -0.0009324169621507715]}}, {"type": "Feature", "properties": {"norad_id": 36397, "name": "INTELSAT 16 (IS-16)", "group": "intelsat", "lat": 0.015321300473638663, "lon": 112.05176746644445, "alt_km": 35794.75904574401, "timestamp": "2025-12-04T07:39:35.838073+00:00", "meta": {"OBJECT_NAME": "INTELSAT 16 (IS-16)", "OBJECT_ID": "2010-006A", "EPOCH": "2025-12-03T09:58:04.988928", "MEAN_MOTION": 1.00269955, "ECCENTRICITY": 0.00023778, "INCLINATION": 0.0121, "RA_OF_ASC_NODE": 313.059, "ARG_OF_PERICENTER": 302.3904, "MEAN_ANOMALY": 250.3777, "EPHEMERIS_TYPE": 0, "CLASSIFICATION_TYPE": "U", "NORAD_CAT_ID": 36397, "ELEMENT_SET_NO": 999, "REV_AT_EPOCH": 5769, "BSTAR": 0, "MEAN_MOTION_DOT": -2.26e-06, "MEAN_MOTION_DDOT": 0}, "tle": {"line1": "1 36397U 10006A   25337.41533552 -.00000226  00000+0  00000+0 0  9992", "line2": "2 36397   0.0121 313.0590 0002377 302.3904 250.3777  1.00269955 57690"}}, "geometry": {"type": "Point", "coordinates": [112.05176746644445, 0.015321300473638663]}}, {"type": "Feature", "properties": {"norad_id": 37185, "name": "XM-5", "group": "intelsat", "lat": 0.04106243395029292, "lon": 73.06220056749046, "alt_km": 35785.80528878722, "timestamp": "2025-12-04T07:39:35.838084+00:00", "meta": {"OBJECT_NAME": "XM-5", "OBJECT_ID": "2010-053A", "EPOCH": "2025-12-03T16:37:59.708352", "MEAN_MOTION": 1.00269411, "ECCENTRICITY": 0.00013329, "INCLINATION": 0.0614, "RA_OF_ASC_NODE": 273.227, "ARG_OF_PERICENTER": 240.4281, "MEAN_ANOMALY": 53.4318, "EPHEMERIS_TYPE": 0, "CLASSIFICATION_TYPE": "U", "NORAD_CAT_ID": 37185, "ELEMENT_SET_NO": 999, "REV_AT_EPOCH": 5552, "BSTAR": 0, "MEAN_MOTION_DOT": -5e-08, "MEAN_MOTION_DDOT": 0}, "tle": {"line1": "1 37185U 10053A   25337.69305218 -.00000005  00000+0  00000+0 0  9991", "line2": "2 37185   0.0614 273.2270 0001332 240.4281  53.4318  1.00269411 55525"}}, "geometry": {"type": "Point", "coordinates": [73.06220056749046, 0.04106243395029292]}}, {"type": "Feature", "properties": {"norad_id": 37238, "name": "INTELSAT 17 (IS-17)", "group": "intelsat", "lat": -0.02550279610752634, "lon": -105.71392609578221, "alt_km": 35777.82538510169, "timestamp": "2025-12-04T07:39:35.838094+00:00", "meta": {"OBJECT_NAME": "INTELSAT 17 (IS-17)", "OBJECT_ID": "2010-065B", "EPOCH": "2025-12-03T21:56:38.683968", "MEAN_MOTION": 1.00266634, "ECCENTRICITY": 0.00025897, "INCLINATION": 0.0151, "RA_OF_ASC_NODE": 284.4598, "ARG_OF_PERICENTER": 301.7081, "MEAN_ANOMALY": 241.9967, "EPHEMERIS_TYPE": 0, "CLASSIFICATION_TYPE": "U", "NORAD_CAT_ID": 37238, "ELEMENT_SET_NO": 999, "REV_AT_EPOCH": 5129, "BSTAR": 0, "MEAN_MOTION_DOT": 1.6e-07, "MEAN_MOTION_DDOT": 0}, "tle": {"line1": "1 37238U 10065B   25337.91433662  .00000016  00000+0  00000+0 0  9994", "line2": "2 37238   0.0151 284.4598 0002589 301.7081 241.9967  1.00266634 51299"}}, "geometry": {"type": "Point", "coordinates": [-105.71392609578221, -0.02550279610752634]}}, {"type": "Feature", "properties": {"norad_id": 37392, "name": "INTELSAT 28 (IS-28)", "group": "intelsat", "lat": 1.2270853917330722, "lon": 156.51854085205287, "alt_km": 35789.61554138531, "timestamp": "2025-12-04T07:39:35.838105+00:00", "meta": {"OBJECT_NAME": "INTELSAT 28 (IS-28)", "OBJECT_ID": "2011-016A", "EPOCH": "2025-12-03T17:01:42.437280", "MEAN_MOTION": 1.00271188, "ECCENTRICITY": 0.00040954, "INCLINATION": 1.2994, "RA_OF_ASC_NODE": 85.166, "ARG_OF_PERICENTER": 173.0028, "MEAN_ANOMALY": 38.3481, "EPHEMERIS_TYPE": 0, "CLASSIFICATION_TYPE": "U", "NORAD_CAT_ID": 37392, "ELEMENT_SET_NO": 999, "REV_AT_EPOCH": 5132, "BSTAR": 0, "MEAN_MOTION_DOT": -2.08e-06, "MEAN_MOTION_DDOT": 0}, "tle": {"line1": "1 37392U 11016A   25337.70951895 -.00000208  00000+0  00000+0 0  9996", "line2": "2 37392   1.2994  85.1660 0004095 173.0028  38.3481  1.00271188 51322"}}, "geometry": {"type": "Point", "coordinates": [156.51854085205287, 1.2270853917330722]}}]}